NORAD_CAT_ID,OBJECT_NAME,OBJECT_TYPE,EPOCH,MEAN_MOTION,ECCENTRICITY,INCLINATION,RA_OF_ASC_NODE,ARG_OF_PERICENTER,MEAN_ANOMALY,BSTAR,MEAN_MOTION_DOT,MEAN_MOTION_DDOT,TLE_LINE0,TLE_LINE1,TLE_LINE2,SEMIMAJOR_AXIS,PERIOD,APOGEE,PERIGEE,DECAYED
54806.0,STARLINK-5412,PAYLOAD,2024-01-07 07:33:37,15.08843022,0.0001557,53.2181,345.8182,92.373,267.7441,6.2455e-05,7.06e-06,0.0,0 STARLINK-5412,1 54806U 22175BA  24007.31502024  .00000706  00000-0  62455-4 0  9999,2 54806  53.2181 345.8182 0001557  92.3730 267.7441 15.08843022 60514,6917.871,95.437,540.813,538.659,0.0
54806.0,STARLINK-5412,PAYLOAD,2024-01-08 04:13:39,15.08809456,0.0001536,53.218,341.948,121.1402,238.974,0.00029552,4.415e-05,0.0,0 STARLINK-5412,1 54806U 22175BA  24008.17615227  .00004415  00000-0  29552-3 0  9995,2 54806  53.2180 341.9480 0001536 121.1402 238.9740 15.08809456 58483,6917.974,95.439,540.901,538.776,0.0
54806.0,STARLINK-5412,PAYLOAD,2024-01-08 07:24:26,15.08827167,0.0001455,53.2183,341.3594,94.4912,265.6247,-7.9428e-05,-1.551e-05,0.0,0 STARLINK-5412,1 54806U 22175BA  24008.30863596 -.00001551  00000-0 -79428-4 0  9992,2 54806  53.2183 341.3594 0001455  94.4912 265.6247 15.08827167 60665,6917.92,95.438,540.791,538.778,0.0
54806.0,STARLINK-5412,PAYLOAD,2024-01-09 04:04:26,15.08841754,0.0002194,53.2192,337.4967,62.4394,297.6821,3.2028e-05,2.21e-06,0.0,0 STARLINK-5412,1 54806U 22175BA  24009.16974859  .00000221  00000-0  32028-4 0  9998,2 54806  53.2192 337.4967 0002194  62.4394 297.6821 15.08841754 58630,6917.875,95.437,541.258,538.222,0.0
54806.0,STARLINK-5412,PAYLOAD,2024-01-09 07:15:11,15.08849355,0.0001859,53.2199,336.8934,107.3931,252.7265,5.0413e-05,5.14e-06,0.0,0 STARLINK-5412,1 54806U 22175BA  24009.30221752  .00000514  00000-0  50413-4 0  9994,2 54806  53.2199 336.8934 0001859 107.3931 252.7265 15.08849355 58658,6917.852,95.437,541.003,538.431,0.0
54806.0,STARLINK-5412,PAYLOAD,2024-01-09 21:33:40,15.0883642,0.0001584,53.2193,334.2267,109.9895,250.1267,0.00011044,1.47e-05,0.0,0 STARLINK-5412,1 54806U 22175BA  24009.89838329  .00001470  00000-0  11044-3 0  9990,2 54806  53.2193 334.2267 0001584 109.9895 250.1267 15.08836420 60909,6917.891,95.438,540.852,538.661,0.0
54806.0,STARLINK-5412,PAYLOAD,2024-01-10 03:55:12,15.08837447,0.0001409,53.2193,333.037,117.1162,242.9974,0.00010825,1.435e-05,0.0,0 STARLINK-5412,1 54806U 22175BA  24010.16334290  .00001435  00000-0  10825-3 0  9997,2 54806  53.2193 333.0370 0001409 117.1162 242.9974 15.08837447 58782,6917.888,95.438,540.728,538.778,0.0
54806.0,STARLINK-5412,PAYLOAD,2024-01-10 07:05:58,15.08841993,0.0001588,53.2191,332.4376,121.5758,238.539,0.00017438,2.488e-05,0.0,0 STARLINK-5412,1 54806U 22175BA  24010.29581779  .00002488  00000-0  17438-3 0  9993,2 54806  53.2191 332.4376 0001588 121.5758 238.5390 15.08841993 60964,6917.874,95.437,540.838,538.641,0.0
54806.0,STARLINK-5412,PAYLOAD,2024-01-11 06:56:45,15.08848775,0.0001626,53.2192,327.9732,101.3563,258.7612,-9.5333e-06,-4.4e-06,0.0,0 STARLINK-5412,1 54806U 22175BA  24011.28942046 -.00000440  00000-0 -95333-5 0  9991,2 54806  53.2192 327.9732 0001626 101.3563 258.7612 15.08848775 61117,6917.854,95.437,540.843,538.594,0.0
54806.0,STARLINK-5412,PAYLOAD,2024-01-11 21:15:14,15.08840052,0.0001824,53.2183,325.2951,128.1248,231.9909,-6.994e-05,-1.401e-05,0.0,0 STARLINK-5412,1 54806U 22175BA  24011.88558754 -.00001401  00000-0 -69940-4 0  9998,2 54806  53.2183 325.2951 0001824 128.1248 231.9909 15.08840052 61200,6917.88,95.438,541.007,538.483,0.0
54806.0,STARLINK-5412,PAYLOAD,2024-01-12 03:36:47,15.08842207,0.0001688,53.2187,324.1104,109.6744,250.443,-1.2762e-05,-4.91e-06,0.0,0 STARLINK-5412,1 54806U 22175BA  24012.15054465 -.00000491  00000-0 -12762-4 0  9997,2 54806  53.2187 324.1104 0001688 109.6744 250.4430 15.08842207 59087,6917.874,95.437,540.906,538.571,0.0
54806.0,STARLINK-5412,PAYLOAD,2024-01-12 06:47:33,15.08843918,0.0001605,53.2187,323.5155,109.7592,250.3573,-7.8118e-06,-4.12e-06,0.0,0 STARLINK-5412,1 54806U 22175BA  24012.28302328 -.00000412  00000-0 -78118-5 0  9996,2 54806  53.2187 323.5155 0001605 109.7592 250.3573 15.08843918 61267,6917.868,95.437,540.844,538.623,0.0
54806.0,STARLINK-5412,PAYLOAD,2024-01-12 21:06:02,15.08839475,0.0001817,53.2186,320.8377,121.9276,238.1893,-8.5306e-05,-1.646e-05,0.0,0 STARLINK-5412,1 54806U 22175BA  24012.87919186 -.00001646  00000-0 -85306-4 0  9993,2 54806  53.2186 320.8377 0001817 121.9276 238.1893 15.08839475 61354,6917.882,95.438,541.004,538.49,0.0
54806.0,STARLINK-5412,PAYLOAD,2024-01-13 01:52:11,15.08840383,0.0001413,53.2191,319.9497,87.1597,272.9557,-5.071e-05,-1.095e-05,0.0,0 STARLINK-5412,1 54806U 22175BA  24013.07791185 -.00001095  00000-0 -50710-4 0  9992,2 54806  53.2191 319.9497 0001413  87.1597 272.9557 15.08840383 59229,6917.879,95.438,540.722,538.767,0.0
54806.0,STARLINK-5412,PAYLOAD,2024-01-14 03:18:21,15.08837785,0.0001408,53.2194,315.1963,76.5387,283.5762,7.8163e-05,9.56e-06,0.0,0 STARLINK-5412,1 54806U 22175BA  24014.13775348  .00000956  00000-0  78163-4 0  9998,2 54806  53.2194 315.1963 0001408  76.5387 283.5762 15.08837785 59386,6917.887,95.438,540.726,538.778,0.0
54806.0,STARLINK-5412,PAYLOAD,2024-01-14 06:29:07,15.08841065,0.0001514,53.2192,314.5945,90.4185,269.6981,6.9316e-05,8.15e-06,0.0,0 STARLINK-5412,1 54806U 22175BA  24014.27023054  .00000815  00000-0  69316-4 0  9997,2 54806  53.2192 314.5945 0001514  90.4185 269.6981 15.08841065 61563,6917.877,95.437,540.79,538.695,0.0
54806.0,STARLINK-5412,PAYLOAD,2024-01-15 03:09:07,15.08858389,0.0001405,53.2188,310.7367,91.6739,268.4414,0.00020958,3.051e-05,0.0,0 STARLINK-5412,1 54806U 22175BA  24015.13133761  .00003051  00000-0  20958-3 0  9993,2 54806  53.2188 310.7367 0001405  91.6739 268.4414 15.08858389 59530,6917.824,95.436,540.661,538.717,0.0
54806.0,STARLINK-5412,PAYLOAD,2024-01-15 04:44:30,15.0886001,0.0001491,53.2192,310.434,94.7888,265.3274,0.00021153,3.082e-05,0.0,0 STARLINK-5412,1 54806U 22175BA  24015.19757547  .00003082  00000-0  21153-3 0  9995,2 54806  53.2192 310.4340 0001491  94.7888 265.3274 15.08860010 61703,6917.819,95.436,540.716,538.653,0.0
54806.0,STARLINK-5412,PAYLOAD,2024-01-15 23:49:09,15.08836687,0.0001344,53.2185,306.8638,102.7839,257.3303,-1.2507e-05,-4.87e-06,0.0,0 STARLINK-5412,1 54806U 22175BA  24015.99247549 -.00000487  00000-0 -12507-4 0  9991,2 54806  53.2185 306.8638 0001344 102.7839 257.3303 15.08836687 59666,6917.891,95.438,540.685,538.826,0.0
54806.0,STARLINK-5412,PAYLOAD,2024-01-16 04:35:19,15.08837292,0.0001574,53.2186,305.9711,95.9015,264.2157,-4.2495e-06,-3.56e-06,0.0,0 STARLINK-5412,1 54806U 22175BA  24016.19119717 -.00000356  00000-0 -42495-5 0  9994,2 54806  53.2186 305.9711 0001574  95.9015 264.2157 15.08837292 61854,6917.889,95.438,540.843,538.665,0.0
54806.0,STARLINK-5412,PAYLOAD,2024-01-17 01:15:19,15.0884766,0.0001589,53.2197,302.1085,81.2849,278.8323,-9.0106e-05,-1.722e-05,0.0,0 STARLINK-5412,1 54806U 22175BA  24017.05231366 -.00001722  00000-0 -90106-4 0  9994,2 54806  53.2197 302.1085 0001589  81.2849 278.8323 15.08847660 59828,6917.857,95.437,540.821,538.623,0.0
54806.0,STARLINK-5412,PAYLOAD,2024-01-17 21:55:21,15.08840526,0.0001422,53.2191,298.2444,95.0328,265.0826,1.6449e-05,-2.6e-07,0.0,0 STARLINK-5412,1 54806U 22175BA  24017.91343793 -.00000026  00000-0  16449-4 0  9990,2 54806  53.2191 298.2444 0001422  95.0328 265.0826 15.08840526 62113,6917.879,95.438,540.728,538.76,0.0
54806.0,STARLINK-5412,PAYLOAD,2024-01-18 04:16:53,15.08845032,0.0001512,53.2189,297.0503,103.3656,256.7505,7.0637e-05,8.37e-06,0.0,0 STARLINK-5412,1 54806U 22175BA  24018.17839189  .00000837  00000-0  70637-4 0  9996,2 54806  53.2189 297.0503 0001512 103.3656 256.7505 15.08845032 59990,6917.865,95.437,540.776,538.684,0.0
54806.0,STARLINK-5412,PAYLOAD,2024-01-18 21:46:07,15.08838534,0.0001742,53.2195,293.7752,124.6249,235.4908,8.1613e-05,1.011e-05,0.0,0 STARLINK-5412,1 54806U 22175BA  24018.90703487  .00001011  00000-0  81613-4 0  9999,2 54806  53.2195 293.7752 0001742 124.6249 235.4908 15.08838534 62269,6917.885,95.438,540.955,538.545,0.0
54806.0,STARLINK-5412,PAYLOAD,2024-01-19 00:56:53,15.0884657,0.0001608,53.2188,293.1807,108.6945,251.4222,3.1294e-05,2.1e-06,0.0,0 STARLINK-5412,1 54806U 22175BA  24019.03951278  .00000210  00000-0  31294-4 0  9997,2 54806  53.2188 293.1807 0001608 108.6945 251.4222 15.08846570 62280,6917.86,95.437,540.838,538.613,0.0
54806.0,STARLINK-5412,PAYLOAD,2024-01-19 23:12:18,15.08840177,0.0001634,53.2188,289.0198,114.3813,245.735,1.3069e-05,-8e-07,0.0,0 STARLINK-5412,1 54806U 22175BA  24019.96687732 -.00000080  00000-0  13069-4 0  9996,2 54806  53.2188 289.0198 0001634 114.3813 245.7350 15.08840177 62425,6917.88,95.438,540.875,538.614,0.0
54806.0,STARLINK-5412,PAYLOAD,2024-01-20 00:47:41,15.08841746,0.000157,53.2184,288.7243,111.664,248.4519,6.8005e-06,-1.8e-06,0.0,0 STARLINK-5412,1 54806U 22175BA  24020.03311672 -.00000180  00000-0  68005-5 0  9995,2 54806  53.2184 288.7243 0001570 111.6640 248.4519 15.08841746 60276,6917.875,95.437,540.826,538.654,0.0
54806.0,STARLINK-5412,PAYLOAD,2024-01-20 03:58:27,15.08842334,0.0001586,53.2184,288.1289,112.9997,247.1163,1.0783e-05,-1.16e-06,0.0,0 STARLINK-5412,1 54806U 22175BA  24020.16559614 -.00000116  00000-0  10783-4 0  9997,2 54806  53.2184 288.1289 0001586 112.9997 247.1163 15.08842334 62453,6917.873,95.437,540.835,538.641,0.0
54806.0,STARLINK-5412,PAYLOAD,2024-01-20 18:16:56,15.08838062,0.0001415,53.2176,285.4557,105.7143,254.4006,-5.0246e-05,-1.087e-05,0.0,0 STARLINK-5412,1 54806U 22175BA  24020.76176265 -.00001087  00000-0 -50246-4 0  9997,2 54806  53.2176 285.4557 0001415 105.7143 254.4006 15.08838062 60386,6917.886,95.438,540.73,538.772,0.0
54806.0,STARLINK-5412,PAYLOAD,2024-01-20 23:03:05,15.08836132,0.0001618,53.2176,284.5621,106.2911,253.8259,2.447e-09,-2.88e-06,0.0,0 STARLINK-5412,1 54806U 22175BA  24020.96048258 -.00000288  00000-0  24470-8 0  9994,2 54806  53.2176 284.5621 0001618 106.2911 253.8259 15.08836132 62574,6917.892,95.438,540.877,538.638,0.0
